CTC2_L_00297016-03
1 40705U 26307O   26070.40846065  .00000000  00000+0  00000-0 0  9991
2 40705  90.0000 180.0000 0000000   0.0000   0.0000 13.81096544    18
CTC2_L_00297016-04
1 40706U 25162QR  26070.40846065  .00000000  00000+0  00000-0 0  9990
2 40706  90.0000 180.0000 0000000   0.0000  90.0000 13.81096544    18
CTC2_L_00297017-01
1 40707U 23218JG  26070.40846065  .00000000  00000+0  00000-0 0  9991
2 40707  90.0000 192.0000 0000000   0.0000 192.0000 13.81096544    15
CTC2_L_00297017-02
1 40708U 23546F   26070.40846065  .00000000  00000+0  00000-0 0  9996
2 40708  90.0000 192.0000 0000000   0.0000 282.0000 13.81096544    16
CTC2_L_00297017-03
1 40709U 23092WD  26070.40846065  .00000000  00000+0  00000-0 0  9993
2 40709  90.0000 192.0000 0000000   0.0000  12.0000 13.81096544    18
CTC2_L_00297017-04
1 40710U 26541PO  26070.40846065  .00000000  00000+0  00000-0 0  9997
2 40710  90.0000 192.0000 0000000   0.0000 102.0000 13.81096544    10
CTC2_L_00297018-01
1 40711U 25770UJ  26070.40846065  .00000000  00000+0  00000-0 0  9991
2 40711  90.0000 204.0000 0000000   0.0000 204.0000 13.81096544    18
CTC2_L_00297018-02
1 40712U 24256ZY  26070.40846065  .00000000  00000+0  00000-0 0  9990
2 40712  90.0000 204.0000 0000000   0.0000 294.0000 13.81096544    18
CTC2_L_00297018-03
1 40713U 26263PH  26070.40846065  .00000000  00000+0  00000-0 0  9991
2 40713  90.0000 204.0000 0000000   0.0000  24.0000 13.81096544    10
CTC2_L_00297018-04
1 40714U 23322BD  26070.40846065  .00000000  00000+0  00000-0 0  9995
2 40714  90.0000 204.0000 0000000   0.0000 114.0000 13.81096544    11
CTC2_L_00297019-01
1 40715U 24581FL  26070.40846065  .00000000  00000+0  00000-0 0  9994
2 40715  90.0000 216.0000 0000000   0.0000 216.0000 13.81096544    18
CTC2_L_00297019-02
1 40716U 26601CV  26070.40846065  .00000000  00000+0  00000-0 0  9990
2 40716  90.0000 216.0000 0000000   0.0000 306.0000 13.81096544    19
CTC2_L_00297019-03
1 40717U 26592PF  26070.40846065  .00000000  00000+0  00000-0 0  9990
2 40717  90.0000 216.0000 0000000   0.0000  36.0000 13.81096544    10
CTC2_L_00297019-04
1 40718U 25915LZ  26070.40846065  .00000000  00000+0  00000-0 0  9999
2 40718  90.0000 216.0000 0000000   0.0000 126.0000 13.81096544    11
CTC2_L_00297020-01
1 40719U 25336VJ  26070.40846065  .00000000  00000+0  00000-0 0  9997
2 40719  90.0000 228.0000 0000000   0.0000 228.0000 13.81096544    18
CTC2_L_00297020-02
1 40720U 23787BU  26070.40846065  .00000000  00000+0  00000-0 0  9997
2 40720  90.0000 228.0000 0000000   0.0000 318.0000 13.81096544    10
CTC2_L_00297020-03
1 40721U 24513FM  26070.40846065  .00000000  00000+0  00000-0 0  9996
2 40721  90.0000 228.0000 0000000   0.0000  48.0000 13.81096544    11
CTC2_L_00297020-04
1 40722U 25615WS  26070.40846065  .00000000  00000+0  00000-0 0  9991
2 40722  90.0000 228.0000 0000000   0.0000 138.0000 13.81096544    12
CTC2_L_00297021-01
1 40723U 24696XS  26070.40846065  .00000000  00000+0  00000-0 0  9990
2 40723  90.0000 240.0000 0000000   0.0000 240.0000 13.81096544    11
CTC2_L_00297021-02
1 40724U 26693FC  26070.40846065  .00000000  00000+0  00000-0 0  9990
2 40724  90.0000 240.0000 0000000   0.0000 330.0000 13.81096544    12
CTC2_L_00297021-03
1 40725U 23861WB  26070.40846065  .00000000  00000+0  00000-0 0  9995
2 40725  90.0000 240.0000 0000000   0.0000  60.0000 13.81096544    13
CTC2_L_00297021-04
1 40726U 22078ZZ  26070.40846065  .00000000  00000+0  00000-0 0  9995
2 40726  90.0000 240.0000 0000000   0.0000 150.0000 13.81096544    14
CTC2_L_00297022-01
1 40727U 24459LN  26070.40846065  .00000000  00000+0  00000-0 0  9991
2 40727  90.0000 252.0000 0000000   0.0000 252.0000 13.81096544    11
CTC2_L_00297022-02
1 40728U 22132MQ  26070.40846065  .00000000  00000+0  00000-0 0  9998
2 40728  90.0000 252.0000 0000000   0.0000 342.0000 13.81096544    12
CTC2_L_00297022-03
1 40729U 23234VE  26070.40846065  .00000000  00000+0  00000-0 0  9993
2 40729  90.0000 252.0000 0000000   0.0000  72.0000 13.81096544    13
CTC2_L_00297022-04
1 40730U 23356FU  26070.40846065  .00000000  00000+0  00000-0 0  9990
2 40730  90.0000 252.0000 0000000   0.0000 162.0000 13.81096544    15
CTC2_L_00297023-01
1 40731U 26847GS  26070.40846065  .00000000  00000+0  00000-0 0  9999
2 40731  90.0000 264.0000 0000000   0.0000 264.0000 13.81096544    12
CTC2_L_00297023-02
1 40732U 23575WJ  26070.40846065  .00000000  00000+0  00000-0 0  9995
2 40732  90.0000 264.0000 0000000   0.0000 354.0000 13.81096544    13
CTC2_L_00297023-03
1 40733U 25051QQ  26070.40846065  .00000000  00000+0  00000-0 0  9997
2 40733  90.0000 264.0000 0000000   0.0000  84.0000 13.81096544    14
CTC2_L_00297023-04
1 40734U 23122OU  26070.40846065  .00000000  00000+0  00000-0 0  9995
2 40734  90.0000 264.0000 0000000   0.0000 174.0000 13.81096544    15
CTC2_L_00297024-01
1 40735U 25573OJ  26070.40846065  .00000000  00000+0  00000-0 0  9998
2 40735  90.0000 276.0000 0000000   0.0000 276.0000 13.81096544    12
CTC2_L_00297024-02
1 40736U 22777GY  26070.40846065  .00000000  00000+0  00000-0 0  9992
2 40736  90.0000 276.0000 0000000   0.0000   6.0000 13.81096544    14
CTC2_L_00297024-03
1 40737U 23679EZ  26070.40846065  .00000000  00000+0  00000-0 0  9995
2 40737  90.0000 276.0000 0000000   0.0000  96.0000 13.81096544    14
CTC2_L_00297024-04
1 40738U 22857SO  26070.40846065  .00000000  00000+0  00000-0 0  9993
2 40738  90.0000 276.0000 0000000   0.0000 186.0000 13.81096544    15
CTC2_L_00297025-01
1 40739U 23125XW  26070.40846065  .00000000  00000+0  00000-0 0  9993
2 40739  90.0000 288.0000 0000000   0.0000 288.0000 13.81096544    12
CTC2_L_00297025-02
1 40740U 22764VV  26070.40846065  .00000000  00000+0  00000-0 0  9993
2 40740  90.0000 288.0000 0000000   0.0000  18.0000 13.81096544    15
CTC2_L_00297025-03
1 40741U 26173TD  26070.40846065  .00000000  00000+0  00000-0 0  9992
2 40741  90.0000 288.0000 0000000   0.0000 108.0000 13.81096544    16
CTC2_L_00297025-04
1 40742U 22434NR  26070.40846065  .00000000  00000+0  00000-0 0  9999
2 40742  90.0000 288.0000 0000000   0.0000 198.0000 13.81096544    16
CTC2_L_00297026-01
1 40743U 24287S   26070.40846065  .00000000  00000+0  00000-0 0  9998
2 40743  90.0000 300.0000 0000000   0.0000 300.0000 13.81096544    17
CTC2_L_00297026-02
1 40744U 24180MS  26070.40846065  .00000000  00000+0  00000-0 0  9991
2 40744  90.0000 300.0000 0000000   0.0000  30.0000 13.81096544    18
CTC2_L_00297026-03
1 40745U 23944XK  26070.40846065  .00000000  00000+0  00000-0 0  9999
2 40745  90.0000 300.0000 0000000   0.0000 120.0000 13.81096544    19
CTC2_L_00297026-04
1 40746U 25651SE  26070.40846065  .00000000  00000+0  00000-0 0  9997
2 40746  90.0000 300.0000 0000000   0.0000 210.0000 13.81096544    10
CTC2_L_00297027-01
1 40747U 23534KO  26070.40846065  .00000000  00000+0  00000-0 0  9996
2 40747  90.0000 312.0000 0000000   0.0000 312.0000 13.81096544    17
CTC2_L_00297027-02
1 40748U 24105JL  26070.40846065  .00000000  00000+0  00000-0 0  9992
2 40748  90.0000 312.0000 0000000   0.0000  42.0000 13.81096544    18
CTC2_L_00297027-03
1 40749U 25261KY  26070.40846065  .00000000  00000+0  00000-0 0  9997
2 40749  90.0000 312.0000 0000000   0.0000 132.0000 13.81096544    19
CTC2_L_00297027-04
1 40750U 22341RG  26070.40846065  .00000000  00000+0  00000-0 0  9995
2 40750  90.0000 312.0000 0000000   0.0000 222.0000 13.81096544    11
CTC2_L_00297028-01
1 40751U 22021BZ  26070.40846065  .00000000  00000+0  00000-0 0  9991
2 40751  90.0000 324.0000 0000000   0.0000 324.0000 13.81096544    18
CTC2_L_00297028-02
1 40752U 22558AJ  26070.40846065  .00000000  00000+0  00000-0 0  9997
2 40752  90.0000 324.0000 0000000   0.0000  54.0000 13.81096544    19
CTC2_L_00297028-03
1 40753U 25320BV  26070.40846065  .00000000  00000+0  00000-0 0  9998
2 40753  90.0000 324.0000 0000000   0.0000 144.0000 13.81096544    10
CTC2_L_00297028-04
1 40754U 23657FY  26070.40846065  .00000000  00000+0  00000-0 0  9990
2 40754  90.0000 324.0000 0000000   0.0000 234.0000 13.81096544    11
CTC2_L_00297029-01
1 40755U 24022CR  26070.40846065  .00000000  00000+0  00000-0 0  9998
2 40755  90.0000 336.0000 0000000   0.0000 336.0000 13.81096544    18
CTC2_L_00297029-02
1 40756U 26826JV  26070.40846065  .00000000  00000+0  00000-0 0  9993
2 40756  90.0000 336.0000 0000000   0.0000  66.0000 13.81096544    19
CTC2_L_00297029-03
1 40757U 24778DM  26070.40846065  .00000000  00000+0  00000-0 0  9998
2 40757  90.0000 336.0000 0000000   0.0000 156.0000 13.81096544    10
CTC2_L_00297029-04
1 40758U 26384UH  26070.40846065  .00000000  00000+0  00000-0 0  9994
2 40758  90.0000 336.0000 0000000   0.0000 246.0000 13.81096544    11
CTC2_L_00297030-01
1 40759U 26274H   26070.40846065  .00000000  00000+0  00000-0 0  9993
2 40759  90.0000 348.0000 0000000   0.0000 348.0000 13.81096544    18
CTC2_L_00297030-02
1 40760U 26610YT  26070.40846065  .00000000  00000+0  00000-0 0  9999
2 40760  90.0000 348.0000 0000000   0.0000  78.0000 13.81096544    10
CTC2_L_00297030-03
1 40761U 22319WS  26070.40846065  .00000000  00000+0  00000-0 0  9992
2 40761  90.0000 348.0000 0000000   0.0000 168.0000 13.81096544    11
CTC2_L_00297030-04
1 40762U 23818ZN  26070.40846065  .00000000  00000+0  00000-0 0  9998
2 40762  90.0000 348.0000 0000000   0.0000 258.0000 13.81096544    12
